[
    {
        "Altitude(m)": 713428.6104123222,
        "Argument of Periapsis(deg)": 0.0034170363559881197,
        "Eccentricity": 0.0,
        "Inclination(deg)": 45.0,
        "Latitude(deg)": -34.32880126418454,
        "Longitude(deg)": 132.57263319884748,
        "Mean Anomaly(deg)": 232.5508649942443,
        "RAAN(deg)": 9.99677441756254,
        "Satellite Name": "Constellation 1 58",
        "Satellite Number": 58,
        "Semi-Major Axis(m)": 7083131.272910544,
        "Time(s)": 57
    },
    {
        "Altitude(m)": 713441.3534103367,
        "Argument of Periapsis(deg)": 0.003476984362233526,
        "Eccentricity": 0.0,
        "Inclination(deg)": 45.0,
        "Latitude(deg)": -34.3603389467205,
        "Longitude(deg)": 132.63112640017462,
        "Mean Anomaly(deg)": 232.61156613449418,
        "RAAN(deg)": 9.996717828396969,
        "Satellite Name": "Constellation 1 58",
        "Satellite Number": 58,
        "Semi-Major Axis(m)": 7083131.272910544,
        "Time(s)": 58
    },
    {
        "Altitude(m)": 713454.086191688,
        "Argument of Periapsis(deg)": 0.003536932368478932,
        "Eccentricity": 0.0,
        "Inclination(deg)": 45.0,
        "Latitude(deg)": -34.39184437692692,
        "Longitude(deg)": 132.68966617832731,
        "Mean Anomaly(deg)": 232.6722672747441,
        "RAAN(deg)": 9.996661239231399,
        "Satellite Name": "Constellation 1 58",
        "Satellite Number": 58,
        "Semi-Major Axis(m)": 7083131.272910544,
        "Time(s)": 59
    },
    {
        "Altitude(m)": 713466.8087107774,
        "Argument of Periapsis(deg)": 0.003596880374724337,
        "Eccentricity": 0.0,
        "Inclination(deg)": 45.0,
        "Latitude(deg)": -34.42331749374438,
        "Longitude(deg)": 132.74825291199477,
        "Mean Anomaly(deg)": 232.73296841499393,
        "RAAN(deg)": 9.99660465006583,
        "Satellite Name": "Constellation 1 58",
        "Satellite Number": 58,
        "Semi-Major Axis(m)": 7083131.272910544,
        "Time(s)": 60
    },
    {
        "Altitude(m)": 713479.5209220381,
        "Argument of Periapsis(deg)": 0.0036568283809697427,
        "Eccentricity": 0.0,
        "Inclination(deg)": 45.0,
        "Latitude(deg)": -34.45475823604736,
        "Longitude(deg)": 132.80688647539952,
        "Mean Anomaly(deg)": 232.7936695552439,
        "RAAN(deg)": 9.996548060900261,
        "Satellite Name": "Constellation 1 58",
        "Satellite Number": 58,
        "Semi-Major Axis(m)": 7083131.272910544,
        "Time(s)": 61
    },
    {
        "Altitude(m)": 713492.2227799282,
        "Argument of Periapsis(deg)": 0.003716776387215149,
        "Eccentricity": 0.0,
        "Inclination(deg)": 45.0,
        "Latitude(deg)": -34.486166542644455,
        "Longitude(deg)": 132.86556691068276,
        "Mean Anomaly(deg)": 232.85437069549374,
        "RAAN(deg)": 9.996491471734691,
        "Satellite Name": "Constellation 1 58",
        "Satellite Number": 58,
        "Semi-Major Axis(m)": 7083131.272910544,
        "Time(s)": 62
    },
    {
        "Altitude(m)": 713504.9142389488,
        "Argument of Periapsis(deg)": 0.003776724393460554,
        "Eccentricity": 0.0,
        "Inclination(deg)": 45.0,
        "Latitude(deg)": -34.517542352278824,
        "Longitude(deg)": 132.9242942598072,
        "Mean Anomaly(deg)": 232.91507183574365,
        "RAAN(deg)": 9.99643488256912,
        "Satellite Name": "Constellation 1 58",
        "Satellite Number": 58,
        "Semi-Major Axis(m)": 7083131.272910544,
        "Time(s)": 63
    },
    {
        "Altitude(m)": 713517.5952536147,
        "Argument of Periapsis(deg)": 0.003836672399705959,
        "Eccentricity": 0.0,
        "Inclination(deg)": 45.0,
        "Latitude(deg)": -34.54888560362812,
        "Longitude(deg)": 132.98306856455542,
        "Mean Anomaly(deg)": 232.97577297599355,
        "RAAN(deg)": 9.996378293403552,
        "Satellite Name": "Constellation 1 58",
        "Satellite Number": 58,
        "Semi-Major Axis(m)": 7083131.272910544,
        "Time(s)": 64
    },
    {
        "Altitude(m)": 713530.2657784929,
        "Argument of Periapsis(deg)": 0.003896620405951365,
        "Eccentricity": 0.0,
        "Inclination(deg)": 45.0,
        "Latitude(deg)": -34.580196235304825,
        "Longitude(deg)": 133.04188986652912,
        "Mean Anomaly(deg)": 233.03647411624348,
        "RAAN(deg)": 9.996321704237983,
        "Satellite Name": "Constellation 1 58",
        "Satellite Number": 58,
        "Semi-Major Axis(m)": 7083131.272910544,
        "Time(s)": 65
    },
    {
        "Altitude(m)": 713542.9257681696,
        "Argument of Periapsis(deg)": 0.003956568412196771,
        "Eccentricity": 0.0,
        "Inclination(deg)": 45.0,
        "Latitude(deg)": -34.61147418585597,
        "Longitude(deg)": 133.1007582071472,
        "Mean Anomaly(deg)": 233.09717525649336,
        "RAAN(deg)": 9.996265115072413,
        "Satellite Name": "Constellation 1 58",
        "Satellite Number": 58,
        "Semi-Major Axis(m)": 7083131.272910544,
        "Time(s)": 66
    },
    {
        "Altitude(m)": 713555.5751772658,
        "Argument of Periapsis(deg)": 0.004016516418442176,
        "Eccentricity": 0.0,
        "Inclination(deg)": 45.0,
        "Latitude(deg)": -34.642719393763535,
        "Longitude(deg)": 133.1596734595484,
        "Mean Anomaly(deg)": 233.15787639674326,
        "RAAN(deg)": 9.996208525906844,
        "Satellite Name": "Constellation 1 58",
        "Satellite Number": 58,
        "Semi-Major Axis(m)": 7083131.272910544,
        "Time(s)": 67
    },
    {
        "Altitude(m)": 713568.2139604348,
        "Argument of Periapsis(deg)": 0.004076464424687581,
        "Eccentricity": 0.0,
        "Inclination(deg)": 45.0,
        "Latitude(deg)": -34.67393179744528,
        "Longitude(deg)": 133.218636000978,
        "Mean Anomaly(deg)": 233.21857753699314,
        "RAAN(deg)": 9.996151936741274,
        "Satellite Name": "Constellation 1 58",
        "Satellite Number": 58,
        "Semi-Major Axis(m)": 7083131.272910544,
        "Time(s)": 68
    },
    {
        "Altitude(m)": 713580.8420723631,
        "Argument of Periapsis(deg)": 0.004136412430932987,
        "Eccentricity": 0.0,
        "Inclination(deg)": 45.0,
        "Latitude(deg)": -34.705111335253555,
        "Longitude(deg)": 133.27764570420416,
        "Mean Anomaly(deg)": 233.27927867724307,
        "RAAN(deg)": 9.996095347575704,
        "Satellite Name": "Constellation 1 58",
        "Satellite Number": 58,
        "Semi-Major Axis(m)": 7083131.272910544,
        "Time(s)": 69
    },
    {
        "Altitude(m)": 713593.4594677665,
        "Argument of Periapsis(deg)": 0.004196360437178394,
        "Eccentricity": 0.0,
        "Inclination(deg)": 45.0,
        "Latitude(deg)": -34.73625794547632,
        "Longitude(deg)": 133.3367026099051,
        "Mean Anomaly(deg)": 233.33997981749297,
        "RAAN(deg)": 9.996038758410135,
        "Satellite Name": "Constellation 1 58",
        "Satellite Number": 58,
        "Semi-Major Axis(m)": 7083131.272910544,
        "Time(s)": 70
    },
    {
        "Altitude(m)": 713606.066101405,
        "Argument of Periapsis(deg)": 0.004256308443423799,
        "Eccentricity": 0.0,
        "Inclination(deg)": 45.0,
        "Latitude(deg)": -34.76737156633717,
        "Longitude(deg)": 133.39580675857124,
        "Mean Anomaly(deg)": 233.40068095774288,
        "RAAN(deg)": 9.995982169244567,
        "Satellite Name": "Constellation 1 58",
        "Satellite Number": 58,
        "Semi-Major Axis(m)": 7083131.272910544,
        "Time(s)": 71
    },
    {
        "Altitude(m)": 713618.6619280587,
        "Argument of Periapsis(deg)": 0.004316256449669204,
        "Eccentricity": 0.0,
        "Inclination(deg)": 45.0,
        "Latitude(deg)": -34.79845213599543,
        "Longitude(deg)": 133.45495819050336,
        "Mean Anomaly(deg)": 233.46138209799273,
        "RAAN(deg)": 9.995925580078996,
        "Satellite Name": "Constellation 1 58",
        "Satellite Number": 58,
        "Semi-Major Axis(m)": 7083131.272910544,
        "Time(s)": 72
    },
    {
        "Altitude(m)": 713631.2469025415,
        "Argument of Periapsis(deg)": 0.00437620445591461,
        "Eccentricity": 0.0,
        "Inclination(deg)": 45.0,
        "Latitude(deg)": -34.82949959254646,
        "Longitude(deg)": 133.51415694581206,
        "Mean Anomaly(deg)": 233.5220832382427,
        "RAAN(deg)": 9.995868990913426,
        "Satellite Name": "Constellation 1 58",
        "Satellite Number": 58,
        "Semi-Major Axis(m)": 7083131.272910544,
        "Time(s)": 73
    },
    {
        "Altitude(m)": 713643.8209797147,
        "Argument of Periapsis(deg)": 0.004436152462160016,
        "Eccentricity": 0.0,
        "Inclination(deg)": 45.0,
        "Latitude(deg)": -34.860513874021244,
        "Longitude(deg)": 133.57340289631907,
        "Mean Anomaly(deg)": 233.58278437849253,
        "RAAN(deg)": 9.995812401747857,
        "Satellite Name": "Constellation 1 58",
        "Satellite Number": 58,
        "Semi-Major Axis(m)": 7083131.272910544,
        "Time(s)": 74
    },
    {
        "Altitude(m)": 713656.3841144545,
        "Argument of Periapsis(deg)": 0.0044961004684054215,
        "Eccentricity": 0.0,
        "Inclination(deg)": 45.0,
        "Latitude(deg)": -34.89149491838777,
        "Longitude(deg)": 133.6326964179441,
        "Mean Anomaly(deg)": 233.64348551874244,
        "RAAN(deg)": 9.995755812582289,
        "Satellite Name": "Constellation 1 58",
        "Satellite Number": 58,
        "Semi-Major Axis(m)": 7083131.272910544,
        "Time(s)": 75
    }
]